STARLINK-1356           
1 45564U 20025AK  26068.40776305  .00089774  00000+0  18744-2 0  9997
2 45564  53.0527  75.1976 0005933  32.1669 327.9698 15.44776817325509
LEMUR-2-JK0903EM1407    
1 58336U 23174CJ  26068.80198419  .00025373  00000+0  50851-3 0  9995
2 58336  97.3909 156.8827 0006330 116.5250 243.6649 15.46691029130341
