[{"OBJECT_NAME":"STARLINK-1356","OBJECT_ID":"2020-025AK","EPOCH":"2026-03-09T09:47:10.727520","MEAN_MOTION":15.44776817,"ECCENTRICITY":0.0005933,"INCLINATION":53.0527,"RA_OF_ASC_NODE":75.1976,"ARG_OF_PERICENTER":32.1669,"MEAN_ANOMALY":327.9698,"EPHEMERIS_TYPE":0,"CLASSIFICATION_TYPE":"U","NORAD_CAT_ID":45564,"ELEMENT_SET_NO":999,"REV_AT_EPOCH":32550,"BSTAR":0.0018744498,"MEAN_MOTION_DOT":0.00089774,"MEAN_MOTION_DDOT":0},{"OBJECT_NAME":"LEMUR-2-JK0903EM1407","OBJECT_ID":"2023-174CJ","EPOCH":"2026-03-09T19:14:51.434880","MEAN_MOTION":15.46691029,"ECCENTRICITY":0.00063296,"INCLINATION":97.3909,"RA_OF_ASC_NODE":156.8827,"ARG_OF_PERICENTER":116.525,"MEAN_ANOMALY":243.6649,"EPHEMERIS_TYPE":0,"CLASSIFICATION_TYPE":"U","NORAD_CAT_ID":58336,"ELEMENT_SET_NO":999,"REV_AT_EPOCH":13034,"BSTAR":0.00050850806,"MEAN_MOTION_DOT":0.00025373,"MEAN_MOTION_DDOT":0}]
